SAPPHIRE                
1 39088U 13009C   23140.76474941  .00000168  00000+0  74700-4 0  9999
2 39088  98.4158 332.8929 0011272   0.1635 359.9552 14.34452328535477
