<?xml version="1.0" encoding="UTF-8"?>
<ndm xmlns:xsi="http://www.w3.org/2001/XMLSchema-instance" xsi:noNamespaceSchemaLocation="http://sanaregistry.org/r/ndmxml/ndmxml-1.0-master.xsd"><omm id="CCSDS_OMM_VERS" version="2.0"><header><COMMENT>GENERATED VIA SPACE-TRACK.ORG API</COMMENT><CREATION_DATE>2023-05-21T02:46:43</CREATION_DATE><ORIGINATOR>18 SPCS</ORIGINATOR></header><body><segment><metadata><OBJECT_NAME>SAPPHIRE</OBJECT_NAME><OBJECT_ID>2013-009C</OBJECT_ID><CENTER_NAME>EARTH</CENTER_NAME><REF_FRAME>TEME</REF_FRAME><TIME_SYSTEM>UTC</TIME_SYSTEM><MEAN_ELEMENT_THEORY>SGP4</MEAN_ELEMENT_THEORY></metadata><data><meanElements><EPOCH>2023-05-20T18:21:14.349024</EPOCH><MEAN_MOTION>14.34452328</MEAN_MOTION><ECCENTRICITY>0.00112720</ECCENTRICITY><INCLINATION>98.4158</INCLINATION><RA_OF_ASC_NODE>332.8929</RA_OF_ASC_NODE><ARG_OF_PERICENTER>0.1635</ARG_OF_PERICENTER><MEAN_ANOMALY>359.9552</MEAN_ANOMALY></meanElements><tleParameters><EPHEMERIS_TYPE>0</EPHEMERIS_TYPE><CLASSIFICATION_TYPE>U</CLASSIFICATION_TYPE><NORAD_CAT_ID>39088</NORAD_CAT_ID><ELEMENT_SET_NO>999</ELEMENT_SET_NO><REV_AT_EPOCH>53547</REV_AT_EPOCH><BSTAR>0.00007470000000</BSTAR><MEAN_MOTION_DOT>0.00000168</MEAN_MOTION_DOT><MEAN_MOTION_DDOT>0.0000000000000</MEAN_MOTION_DDOT></tleParameters><userDefinedParameters><USER_DEFINED parameter="SEMIMAJOR_AXIS">7155.024</USER_DEFINED><USER_DEFINED parameter="PERIOD">100.387</USER_DEFINED><USER_DEFINED parameter="APOAPSIS">784.954</USER_DEFINED><USER_DEFINED parameter="PERIAPSIS">768.824</USER_DEFINED><USER_DEFINED parameter="OBJECT_TYPE">PAYLOAD</USER_DEFINED><USER_DEFINED parameter="RCS_SIZE">MEDIUM</USER_DEFINED><USER_DEFINED parameter="COUNTRY_CODE">CA</USER_DEFINED><USER_DEFINED parameter="LAUNCH_DATE">2013-02-25</USER_DEFINED><USER_DEFINED parameter="SITE">SRI</USER_DEFINED><USER_DEFINED parameter="DECAY_DATE"/><USER_DEFINED parameter="FILE">3913175</USER_DEFINED><USER_DEFINED parameter="GP_ID">232200782</USER_DEFINED></userDefinedParameters></data></segment></body></omm></ndm>